*******************************************************************************
JPL/HORIZONS              3027 Shavarsh (1978 PQ2)         2023-Sep-04 11:21:18
Rec #:    3027 (+COV) Soln.date: 2023-Aug-23_05:19:56   # obs: 3586 (1950-2023)
 
IAU76/J2000 helio. ecliptic osc. elements (au, days, deg., period=Julian yrs):
 
  EPOCH=  2457794.5 ! 2017-Feb-10.00 (TDB)         Residual RMS= .27136
   EC= .2197719078156858   QR= 2.085232289315855   TP= 2458155.0834091245
   OM= 194.4051148605116   W=  155.0017173565745   IN= 1.975533458873162
   A= 2.67259319448249     MA= 278.6588090012069   ADIST= 3.259954099649125
   PER= 4.36926            N= .225582179           ANGMOM= .027434559
   DAN= 3.17614            DDN= 2.12103            L= 349.4198765
   B= .834707              MOID= 1.08028996        TP= 2018-Feb-05.5834091245
 
Asteroid physical parameters (km, seconds, rotational period in hours):
   GM= n.a.                RAD= 6.731              ROTPER= n.a.
   H= 13.46                G= .150                 B-V= n.a.
                           ALBEDO= .040            STYP= n.a.

ASTEROID comments: 
1: soln ref.= JPL#51, OCC=0
2: source=ORB
*******************************************************************************


*******************************************************************************
Ephemeris / API_USER Mon Sep  4 11:21:18 2023 Pasadena, USA      / Horizons
*******************************************************************************
Target body name: 3027 Shavarsh (1978 PQ2)        {source: JPL#51}
Center body name: Solar System Barycenter (0)     {source: DE441}
Center-site name: BODY CENTER
*******************************************************************************
Start time      : A.D. 2023-Aug-12 00:00:00.0000 TDB
Stop  time      : A.D. 2023-Aug-13 00:00:00.0000 TDB
Step-size       : 2880 minutes
*******************************************************************************
Center geodetic : 0.0, 0.0, 0.0                   {E-lon(deg),Lat(deg),Alt(km)}
Center cylindric: 0.0, 0.0, 0.0                   {E-lon(deg),Dxy(km),Dz(km)}
Center radii    : (undefined)
Small perturbers: Yes                             {source: SB441-N16}
Output units    : KM-S
Calendar mode   : Mixed Julian/Gregorian
Output type     : GEOMETRIC cartesian states
Output format   : 2 (position and velocity)
Reference frame : Ecliptic of J2000.0
*******************************************************************************
Initial IAU76/J2000 heliocentric ecliptic osculating elements (au, days, deg.):
  EPOCH=  2457794.5 ! 2017-Feb-10.00 (TDB)         Residual RMS= .27136        
   EC= .2197719078156858   QR= 2.085232289315855   TP= 2458155.0834091245      
   OM= 194.4051148605116   W=  155.0017173565745   IN= 1.975533458873162       
  Equivalent ICRF heliocentric cartesian coordinates (au, au/d):
   X=-1.234701926943079E+00  Y=-2.242920952692465E+00  Z=-8.960609845809577E-01
  VX= 1.003961977343335E-02 VY=-2.431396116641482E-03 VZ=-8.664596082530626E-04
Asteroid physical parameters (km, seconds, rotational period in hours):        
   GM= n.a.                RAD= 6.731              ROTPER= n.a.                
   H= 13.46                G= .150                 B-V= n.a.                   
                           ALBEDO= .040            STYP= n.a.                  
*******************************************************************************
JDTDB
   X     Y     Z
   VX    VY    VZ
*******************************************************************************
$$SOE
2460168.500000000 = A.D. 2023-Aug-12 00:00:00.0000 TDB 
 X =-1.301754614284564E+08 Y = 4.043792691491360E+08 Z =-1.460995649376521E+07
 VX=-1.701996816309988E+01 VY=-1.631330998306342E+00 VZ=-9.186809264744611E-02
$$EOE
*******************************************************************************
 
TIME

  Barycentric Dynamical Time ("TDB" or T_eph) output was requested. This
continuous coordinate time is equivalent to the relativistic proper time
of a clock at rest in a reference frame co-moving with the solar system
barycenter but outside the system's gravity well. It is the independent
variable in the solar system relativistic equations of motion.

  TDB runs at a uniform rate of one SI second per second and is independent
of irregularities in Earth's rotation.
 
CALENDAR SYSTEM

  Mixed calendar mode was active such that calendar dates after AD 1582-Oct-15
(if any) are in the modern Gregorian system. Dates prior to 1582-Oct-5 (if any)
are in the Julian calendar system, which is automatically extended for dates
prior to its adoption on 45-Jan-1 BC.  The Julian calendar is useful for
matching historical dates. The Gregorian calendar more accurately corresponds
to the Earth's orbital motion and seasons. A "Gregorian-only" calendar mode is
available if such physical events are the primary interest.

REFERENCE FRAME AND COORDINATES

  Ecliptic at the standard reference epoch

    Reference epoch: J2000.0
    X-Y plane: adopted Earth orbital plane at the reference epoch
               Note: IAU76 obliquity of 84381.448 arcseconds wrt ICRF X-Y plane
    X-axis   : ICRF
    Z-axis   : perpendicular to the X-Y plane in the directional (+ or -) sense
               of Earth's north pole at the reference epoch.

  Symbol meaning:

    JDTDB    Julian Day Number, Barycentric Dynamical Time
      X      X-component of position vector (km)
      Y      Y-component of position vector (km)
      Z      Z-component of position vector (km)
      VX     X-component of velocity vector (km/sec)                           
      VY     Y-component of velocity vector (km/sec)                           
      VZ     Z-component of velocity vector (km/sec)                           

ABERRATIONS AND CORRECTIONS

 Geometric state vectors have NO corrections or aberrations applied.

Computations by ...

    Solar System Dynamics Group, Horizons On-Line Ephemeris System
    4800 Oak Grove Drive, Jet Propulsion Laboratory
    Pasadena, CA  91109   USA

    General site: https://ssd.jpl.nasa.gov/
    Mailing list: https://ssd.jpl.nasa.gov/email_list.html
    System news : https://ssd.jpl.nasa.gov/horizons/news.html
    User Guide  : https://ssd.jpl.nasa.gov/horizons/manual.html
    Connect     : browser        https://ssd.jpl.nasa.gov/horizons/app.html#/x
                  API            https://ssd-api.jpl.nasa.gov/doc/horizons.html
                  command-line   telnet ssd.jpl.nasa.gov 6775
                  e-mail/batch   https://ssd.jpl.nasa.gov/ftp/ssd/hrzn_batch.txt
                  scripts        https://ssd.jpl.nasa.gov/ftp/ssd/SCRIPTS
    Author      : Jon.D.Giorgini@jpl.nasa.gov
*******************************************************************************
